STARLINK-4211           
1 52873U 22062AV  26068.22571263  .00000241  00000+0  33241-4 0  9990
2 52873  53.2203  16.2045 0001416  96.2205 263.8949 15.08830167205991
2023-069B               
1 56732U 23069B   26068.54706144  .00006772  00000+0  42420-3 0  9992
2 56732  41.0081 274.4606 0011652 279.7432  80.2064 15.09579619155167
