[{"OBJECT_NAME":"STARLINK-4211","OBJECT_ID":"2022-062AV","EPOCH":"2026-03-09T05:25:01.571232","MEAN_MOTION":15.08830167,"ECCENTRICITY":0.00014161,"INCLINATION":53.2203,"RA_OF_ASC_NODE":16.2045,"ARG_OF_PERICENTER":96.2205,"MEAN_ANOMALY":263.8949,"EPHEMERIS_TYPE":0,"CLASSIFICATION_TYPE":"U","NORAD_CAT_ID":52873,"ELEMENT_SET_NO":999,"REV_AT_EPOCH":20599,"BSTAR":3.3241054e-5,"MEAN_MOTION_DOT":2.41e-6,"MEAN_MOTION_DDOT":0},{"OBJECT_NAME":"OBJECT B","OBJECT_ID":"2023-069B","EPOCH":"2026-03-09T13:07:46.108416","MEAN_MOTION":15.09579619,"ECCENTRICITY":0.00116524,"INCLINATION":41.0081,"RA_OF_ASC_NODE":274.4606,"ARG_OF_PERICENTER":279.7432,"MEAN_ANOMALY":80.2064,"EPHEMERIS_TYPE":0,"CLASSIFICATION_TYPE":"U","NORAD_CAT_ID":56732,"ELEMENT_SET_NO":999,"REV_AT_EPOCH":15516,"BSTAR":0.00042419683,"MEAN_MOTION_DOT":6.772e-5,"MEAN_MOTION_DDOT":0}]
